KUIPER-00044            
1 64505U 25134F   25202.91670139 -.00842835  00000+0 -34741-1 0  9993
2 64505  51.8667 194.2592 0010943 216.8361 359.4629 15.26195540  5136
KUIPER-00046            
1 64506U 25134G   25202.91670139  .00040596  00000+0  12863-2 0  9998
2 64506  51.8668 193.9753 0009308 218.0865 137.8410 15.32289320  5154
KUIPER-00047            
1 64507U 25134H   25202.40073557  .00020554  00000+0  62186-3 0  9990
2 64507  51.8608 196.5003 0010132 227.2931 132.7202 15.34122317  5538
KUIPER-00048            
1 64508U 25134J   25202.36542595  .00021894  00000+0  62046-3 0  9992
2 64508  51.8755 196.2980 0002676 197.1430 162.9466 15.36182132  5536
KUIPER-00049            
1 64509U 25134K   25202.96798857  .00018822  00000+0  55078-3 0  9997
2 64509  51.8712 193.5760 0006372 210.1021 149.9599 15.35264692  5628
KUIPER-00050            
1 64510U 25134L   25202.38472544  .00021405  00000+0  62792-3 0  9999
2 64510  51.8719 196.4178 0007109 210.5984 149.4588 15.35095264  5533
KUIPER-00051            
1 64511U 25134M   25202.44142708  .00019052  00000+0  55542-3 0  9993
2 64511  51.8740 196.0515 0005039 199.2046 160.8751 15.35379735  5549
KUIPER-00052            
1 64512U 25134N   25202.93875864  .00045550  00000+0  11856-2 0  9995
2 64512  51.8735 193.3929 0004073 212.8424 147.2310 15.38436148  5626
